[{"OBJECT_NAME":"PROTOMETHEE","OBJECT_ID":"2023-174BT","EPOCH":"2026-03-09T23:28:08.029344","MEAN_MOTION":15.30202663,"ECCENTRICITY":0.00088339,"INCLINATION":97.3826,"RA_OF_ASC_NODE":147.9552,"ARG_OF_PERICENTER":148.5993,"MEAN_ANOMALY":211.5776,"EPHEMERIS_TYPE":0,"CLASSIFICATION_TYPE":"U","NORAD_CAT_ID":58321,"ELEMENT_SET_NO":999,"REV_AT_EPOCH":12979,"BSTAR":0.00015715731,"MEAN_MOTION_DOT":4.52e-5,"MEAN_MOTION_DDOT":0},{"OBJECT_NAME":"STARLINK-32186","OBJECT_ID":"2024-141Q","EPOCH":"2026-03-09T17:24:38.432448","MEAN_MOTION":15.30187065,"ECCENTRICITY":0.00011185,"INCLINATION":53.1601,"RA_OF_ASC_NODE":242.5968,"ARG_OF_PERICENTER":84.5128,"MEAN_ANOMALY":275.6,"EPHEMERIS_TYPE":0,"CLASSIFICATION_TYPE":"U","NORAD_CAT_ID":60412,"ELEMENT_SET_NO":999,"REV_AT_EPOCH":8952,"BSTAR":-6.883346e-6,"MEAN_MOTION_DOT":-5.63e-6,"MEAN_MOTION_DDOT":0}]
